OBJECT_NAME,OBJECT_ID,EPOCH,MEAN_MOTION,ECCENTRICITY,INCLINATION,RA_OF_ASC_NODE,ARG_OF_PERICENTER,MEAN_ANOMALY,EPHEMERIS_TYPE,CLASSIFICATION_TYPE,NORAD_CAT_ID,ELEMENT_SET_NO,REV_AT_EPOCH,BSTAR,MEAN_MOTION_DOT,MEAN_MOTION_DDOT
SL-16 R/B,1995-058B,2026-03-01T18:55:45.074496,14.15492777,.001106,71.0208,196.8413,139.7572,220.4372,0,U,23705,999,56673,-.37092E-4,-.12E-5,0
SL-16 R/B,1996-051B,2026-03-01T19:25:05.312064,14.12413245,.0015793,70.7592,191.9176,159.5684,200.6071,0,U,24298,999,52053,.67097E-4,.75E-6,0
ORBVIEW 2 (SEASTAR),1997-037A,2026-03-01T09:39:04.425120,14.35487386,.0003206,98.8552,224.4950,88.6993,271.4559,0,U,24883,999,50728,.14659E-3,.375E-5,0
SL-16 R/B,1998-043G,2026-03-01T19:16:30.953856,14.26047694,.0010581,98.8241,14.1114,42.0512,318.1478,0,U,25400,999,43786,.50509E-4,.75E-6,0
SL-16 R/B,1998-045B,2026-03-01T19:17:05.407584,14.16189940,.0006295,71.0109,198.1568,20.3267,339.8106,0,U,25407,999,42598,-.10141E-3,-.249E-5,0
ISS (ZARYA),1998-067A,2026-03-01T13:48:17.544384,15.48382986,.0008284,51.6320,112.4722,146.1756,213.9762,0,U,25544,999,55507,.19202E-3,.9927E-4,0
CZ-4B R/B,1999-025C,2026-03-01T20:33:32.109696,14.18263508,.0037188,98.6644,105.3232,9.2250,164.4503,0,U,25732,999,38705,.49655E-4,.6E-6,0
OKEAN-O,1999-039A,2026-03-01T17:50:39.212160,14.80320538,.0001485,97.9460,120.7152,71.7340,288.4033,0,U,25860,999,43321,.1109E-3,.793E-5,0
SL-16 R/B,1999-039B,2026-03-01T17:32:26.740320,14.81718487,.0013428,97.9983,119.8387,284.6887,75.2837,0,U,25861,999,43568,.932E-4,.681E-5,0
DELTA 2 R/B,1999-041E,2026-03-01T19:06:25.624224,14.11807275,.0502302,51.7655,332.8064,325.1266,31.7687,0,U,25876,999,36191,.31488E-3,.1723E-4,0
HELIOS 1B,1999-064A,2026-03-01T17:02:19.095936,14.87658510,.0002501,98.1705,322.7185,85.6161,274.5340,0,U,25977,999,68407,.22703E-3,.2008E-4,0
TERRA,1999-068A,2026-03-01T18:44:58.196832,14.61004842,.000216,97.9611,114.5175,171.2986,304.7594,0,U,25994,999,39392,.11626E-3,.526E-5,0
SL-16 R/B,2000-006B,2026-03-01T14:31:08.740992,14.15823208,.0017304,71.0014,114.8380,201.2993,158.7411,0,U,26070,999,34741,.16729E-3,.282E-5,0
TITAN 4B R/B,2000-047B,2026-03-01T19:28:43.352832,15.09471733,.0037872,67.9881,62.6619,44.8135,315.6061,0,U,26474,999,39172,.30348E-3,.482E-4,0
ENVISAT,2002-009A,2026-03-01T21:15:20.632608,14.39033464,.000135,98.3714,14.6694,85.2599,292.4302,0,U,27386,999,25805,.60035E-4,.143E-5,0
IDEFIX & ARIANE 42P R/B,2002-021B,2026-03-01T17:38:00.621888,14.31019403,.001112,98.5862,359.4365,206.3846,153.6772,0,U,27422,999,24288,.13624E-3,.315E-5,0
AQUA,2002-022A,2026-03-01T21:01:24.746304,14.61953920,.0000713,98.4160,28.0994,53.4417,334.8110,0,U,27424,999,26759,.2464E-3,.1185E-4,0
CZ-4B R/B,2002-024C,2026-03-01T17:40:02.230752,14.14545969,.005084,98.8857,114.1823,46.5747,65.6183,0,U,27432,999,22811,.468E-4,.47E-6,0
MIDORI II (ADEOS-II),2002-056A,2026-03-01T19:45:19.764288,14.29277780,.000186,98.7754,19.2472,54.3439,305.7915,0,U,27597,999,20917,.14655E-3,.327E-5,0
H-2A R/B,2002-056E,2026-03-01T19:41:47.419872,14.33754541,.0070007,98.3188,21.4865,184.0894,233.4046,0,U,27601,999,21298,.1206E-3,.303E-5,0
CZ-4B R/B,2003-049C,2026-03-01T13:03:18.739296,14.55010732,.0047006,98.6871,55.1297,256.3092,103.2868,0,U,28059,999,18541,.12731E-3,.504E-5,0
CZ-2C R/B,2004-012C,2026-03-01T17:44:36.806496,15.63451390,.0013561,97.7255,125.2843,341.9053,18.1720,0,U,28222,999,20303,.63199E-3,.58766E-3,0
SL-16 R/B,2004-021B,2026-03-01T19:40:53.563296,14.14599764,.0003632,70.9991,249.0084,26.0617,334.0687,0,U,28353,999,12172,-.92989E-5,-.66E-6,0
CZ-4B R/B,2004-035C,2026-03-01T15:54:56.337120,15.28890487,.0032008,97.3514,95.0026,0.5839,359.5433,0,U,28415,999,17868,.34555E-3,.9774E-4,0
CZ-2C R/B,2004-046B,2026-03-01T18:32:22.329888,14.26989175,.0139417,98.1988,336.2487,177.8033,182.3791,0,U,28480,999,10737,.69106E-4,.145E-5,0
ARIANE 5 R/B,2004-049H,2026-03-01T09:55:43.488192,14.85247794,.008454,98.2613,228.5617,18.7373,341.6920,0,U,28499,999,14456,.10998E-3,.941E-5,0
CZ-2D R/B,2005-024B,2026-03-01T13:28:34.368096,15.59302460,.0007005,97.3599,75.4145,66.5213,293.6779,0,U,28738,999,13851,.57095E-3,.45028E-3,0
ALOS (DAICHI),2006-002A,2026-03-01T21:04:40.888992,14.69779356,.0001238,98.1205,16.8737,51.4657,308.6660,0,U,28931,999,7233,.28843E-3,.1671E-4,0
H-2A R/B,2006-002B,2026-03-01T08:38:52.371168,15.16205144,.005198,98.2387,206.6702,269.7000,89.8274,0,U,28932,999,9317,.57137E-3,.11351E-3,0
RESURS-DK 1,2006-021A,2026-03-01T17:35:03.232320,15.12682430,.0002546,69.9303,257.6072,166.2959,193.8276,0,U,29228,999,8632,.17944E-3,.304E-4,0
CZ-4B R/B,2006-046C,2026-03-01T16:38:02.728032,15.16805114,.0031846,97.5612,105.6233,296.4725,63.3242,0,U,29507,999,5883,.27228E-3,.5349E-4,0
